{
  "type": "FeatureCollection",
  "features": [
    {
      "type": "Feature",
      "properties": {
        "norad_id": 30066,
        "name": "FENGYUN 1C DEB",
        "group": "fengyun-1c-debris",
        "lat": 77.40486295569688,
        "lon": -69.49628702525106,
        "alt_km": 903.1514344601401,
        "timestamp": "2025-12-08T19:31:49.083199+00:00",
        "meta_object_name": "FENGYUN 1C DEB",
        "meta_object_id": "1999-025PT",
        "meta_epoch": "2025-12-07T23:06:17.208288",
        "meta_mean_motion": 14.19103418,
        "meta_eccentricity": 0.01166989,
        "meta_inclination": 98.6338,
        "meta_ra_of_asc_node": 332.5176,
        "meta_arg_of_pericenter": 275.8102,
        "meta_mean_anomaly": 139.2769,
        "meta_ephemeris_type": 0,
        "meta_classification_type": "U",
        "meta_norad_cat_id": 30066,
        "meta_element_set_no": 999,
        "meta_rev_at_epoch": 97769,
        "meta_bstar": 0.00026819601,
        "meta_mean_motion_dot": 5.56e-06,
        "meta_mean_motion_ddot": 0,
        "tle_line1": "1 30066U 99025PT  25341.96269917  .00000556  00000+0  26820-3 0  9990",
        "tle_line2": "2 30066  98.6338 332.5176 0116698 275.8102 139.2769 14.19103418977694"
      },
      "geometry": {
        "type": "Point",
        "coordinates": [
          -69.49628702525106,
          77.40486295569688
        ]
      }
    },
    {
      "type": "Feature",
      "properties": {
        "norad_id": 30067,
        "name": "FENGYUN 1C DEB",
        "group": "fengyun-1c-debris",
        "lat": 15.892422680303984,
        "lon": -133.73903215332638,
        "alt_km": 641.6328006019385,
        "timestamp": "2025-12-08T19:31:49.083208+00:00",
        "meta_object_name": "FENGYUN 1C DEB",
        "meta_object_id": "1999-025PU",
        "meta_epoch": "2025-12-08T06:40:27.605856",
        "meta_mean_motion": 14.43665655,
        "meta_eccentricity": 0.0152087,
        "meta_inclination": 98.7656,
        "meta_ra_of_asc_node": 228.2272,
        "meta_arg_of_pericenter": 31.3745,
        "meta_mean_anomaly": 82.8692,
        "meta_ephemeris_type": 0,
        "meta_classification_type": "U",
        "meta_norad_cat_id": 30067,
        "meta_element_set_no": 999,
        "meta_rev_at_epoch": 99134,
        "meta_bstar": 0.00067444204,
        "meta_mean_motion_dot": 2.583e-05,
        "meta_mean_motion_ddot": 0,
        "tle_line1": "1 30067U 99025PU  25342.27809729  .00002583  00000+0  67444-3 0  9996",
        "tle_line2": "2 30067  98.7656 228.2272 0152087  31.3745  82.8692 14.43665655991346"
      },
      "geometry": {
        "type": "Point",
        "coordinates": [
          -133.73903215332638,
          15.892422680303984
        ]
      }
    },
    {
      "type": "Feature",
      "properties": {
        "norad_id": 30068,
        "name": "FENGYUN 1C DEB",
        "group": "fengyun-1c-debris",
        "lat": -17.756829261976403,
        "lon": -26.456674909410495,
        "alt_km": 726.1165902234188,
        "timestamp": "2025-12-08T19:31:49.083217+00:00",
        "meta_object_name": "FENGYUN 1C DEB",
        "meta_object_id": "1999-025PV",
        "meta_epoch": "2025-12-08T06:00:26.716608",
        "meta_mean_motion": 14.12041316,
        "meta_eccentricity": 0.01902367,
        "meta_inclination": 98.7362,
        "meta_ra_of_asc_node": 330.1716,
        "meta_arg_of_pericenter": 1.6193,
        "meta_mean_anomaly": 358.5555,
        "meta_ephemeris_type": 0,
        "meta_classification_type": "U",
        "meta_norad_cat_id": 30068,
        "meta_element_set_no": 999,
        "meta_rev_at_epoch": 97280,
        "meta_bstar": 0.0004014158,
        "meta_mean_motion_dot": 8.29e-06,
        "meta_mean_motion_ddot": 0,
        "tle_line1": "1 30068U 99025PV  25342.25030922  .00000829  00000+0  40142-3 0  9993",
        "tle_line2": "2 30068  98.7362 330.1716 0190236   1.6193 358.5555 14.12041316972801"
      },
      "geometry": {
        "type": "Point",
        "coordinates": [
          -26.456674909410495,
          -17.756829261976403
        ]
      }
    },
    {
      "type": "Feature",
      "properties": {
        "norad_id": 30069,
        "name": "FENGYUN 1C DEB",
        "group": "fengyun-1c-debris",
        "lat": 17.850608675484054,
        "lon": 147.63807011700047,
        "alt_km": 880.8848685474859,
        "timestamp": "2025-12-08T19:31:49.083227+00:00",
        "meta_object_name": "FENGYUN 1C DEB",
        "meta_object_id": "1999-025PW",
        "meta_epoch": "2025-12-08T05:12:14.473152",
        "meta_mean_motion": 14.05219068,
        "meta_eccentricity": 0.0050001,
        "meta_inclination": 98.8007,
        "meta_ra_of_asc_node": 324.1992,
        "meta_arg_of_pericenter": 65.6145,
        "meta_mean_anomaly": 317.5777,
        "meta_ephemeris_type": 0,
        "meta_classification_type": "U",
        "meta_norad_cat_id": 30069,
        "meta_element_set_no": 999,
        "meta_rev_at_epoch": 96783,
        "meta_bstar": 0.00035017928,
        "meta_mean_motion_dot": 5.3e-06,
        "meta_mean_motion_ddot": 0,
        "tle_line1": "1 30069U 99025PW  25342.21683418  .00000530  00000+0  35018-3 0  9999",
        "tle_line2": "2 30069  98.8007 324.1992 0050001  65.6145 317.5777 14.05219068967831"
      },
      "geometry": {
        "type": "Point",
        "coordinates": [
          147.63807011700047,
          17.850608675484054
        ]
      }
    },
    {
      "type": "Feature",
      "properties": {
        "norad_id": 30070,
        "name": "FENGYUN 1C DEB",
        "group": "fengyun-1c-debris",
        "lat": -60.55570726370562,
        "lon": -152.2151374604616,
        "alt_km": 853.9580015623951,
        "timestamp": "2025-12-08T19:31:49.083236+00:00",
        "meta_object_name": "FENGYUN 1C DEB",
        "meta_object_id": "1999-025PX",
        "meta_epoch": "2025-12-08T03:16:55.663968",
        "meta_mean_motion": 14.09848889,
        "meta_eccentricity": 0.03283367,
        "meta_inclination": 98.2866,
        "meta_ra_of_asc_node": 42.1218,
        "meta_arg_of_pericenter": 332.2665,
        "meta_mean_anomaly": 78.8939,
        "meta_ephemeris_type": 0,
        "meta_classification_type": "U",
        "meta_norad_cat_id": 30070,
        "meta_element_set_no": 999,
        "meta_rev_at_epoch": 95814,
        "meta_bstar": 0.0019218519,
        "meta_mean_motion_dot": 5.545e-05,
        "meta_mean_motion_ddot": 0,
        "tle_line1": "1 30070U 99025PX  25342.13675537  .00005545  00000+0  19219-2 0  9990",
        "tle_line2": "2 30070  98.2866  42.1218 0328336 332.2665  78.8939 14.09848889958141"
      },
      "geometry": {
        "type": "Point",
        "coordinates": [
          -152.2151374604616,
          -60.55570726370562
        ]
      }
    },
    {
      "type": "Feature",
      "properties": {
        "norad_id": 30071,
        "name": "FENGYUN 1C DEB",
        "group": "fengyun-1c-debris",
        "lat": -50.317826735834934,
        "lon": -108.62858514117909,
        "alt_km": 735.2335608133544,
        "timestamp": "2025-12-08T19:31:49.083245+00:00",
        "meta_object_name": "FENGYUN 1C DEB",
        "meta_object_id": "1999-025PY",
        "meta_epoch": "2025-12-08T05:32:43.671264",
        "meta_mean_motion": 14.51998114,
        "meta_eccentricity": 0.00397363,
        "meta_inclination": 98.659,
        "meta_ra_of_asc_node": 81.3545,
        "meta_arg_of_pericenter": 123.4073,
        "meta_mean_anomaly": 303.0646,
        "meta_ephemeris_type": 0,
        "meta_classification_type": "U",
        "meta_norad_cat_id": 30071,
        "meta_element_set_no": 999,
        "meta_rev_at_epoch": 98161,
        "meta_bstar": 0.0032913086,
        "meta_mean_motion_dot": 0.00013408,
        "meta_mean_motion_ddot": 0,
        "tle_line1": "1 30071U 99025PY  25342.23106101  .00013408  00000+0  32913-2 0  9991",
        "tle_line2": "2 30071  98.6590  81.3545 0039736 123.4073 303.0646 14.51998114981614"
      },
      "geometry": {
        "type": "Point",
        "coordinates": [
          -108.62858514117909,
          -50.317826735834934
        ]
      }
    },
    {
      "type": "Feature",
      "properties": {
        "norad_id": 30072,
        "name": "FENGYUN 1C DEB",
        "group": "fengyun-1c-debris",
        "lat": 35.84605190621096,
        "lon": 124.23029034632725,
        "alt_km": 779.9700828073755,
        "timestamp": "2025-12-08T19:31:49.083254+00:00",
        "meta_object_name": "FENGYUN 1C DEB",
        "meta_object_id": "1999-025PZ",
        "meta_epoch": "2025-12-08T07:40:09.103584",
        "meta_mean_motion": 14.37646304,
        "meta_eccentricity": 0.00593017,
        "meta_inclination": 99.0777,
        "meta_ra_of_asc_node": 130.3414,
        "meta_arg_of_pericenter": 285.0697,
        "meta_mean_anomaly": 74.3931,
        "meta_ephemeris_type": 0,
        "meta_classification_type": "U",
        "meta_norad_cat_id": 30072,
        "meta_element_set_no": 999,
        "meta_rev_at_epoch": 97107,
        "meta_bstar": 0.0040401062,
        "meta_mean_motion_dot": 0.00012355,
        "meta_mean_motion_ddot": 0,
        "tle_line1": "1 30072U 99025PZ  25342.31954981  .00012355  00000+0  40401-2 0  9999",
        "tle_line2": "2 30072  99.0777 130.3414 0059301 285.0697  74.3931 14.37646304971073"
      },
      "geometry": {
        "type": "Point",
        "coordinates": [
          124.23029034632725,
          35.84605190621096
        ]
      }
    }
  ]
}